#aV2021  7 27  0  0  0.00000000     288 DD+AD WGS84 FIT  NGA
## 2168 172800.00000000   300.00000000 59422 0.0000000000000
+   32     1  2  3  4  5  6  7  8  9 10 11 12 13 14 15 16 17
+         18 19 20 21 22 23 24 25 26 27 28 29 30 31 32  0  0
+          0  0  0  0  0  0  0  0  0  0  0  0  0  0  0  0  0
+          0  0  0  0  0  0  0  0  0  0  0  0  0  0  0  0  0
+          0  0  0  0  0  0  0  0  0  0  0  0  0  0  0  0  0
++         2  2  2  2  2  2  2  2  2  2  2  2  2  2  2  2  2
++         2  2  2  2  2  2  2  2  2  2  2  2  2  2  2  0  0
++         0  0  0  0  0  0  0  0  0  0  0  0  0  0  0  0  0
++         0  0  0  0  0  0  0  0  0  0  0  0  0  0  0  0  0
++         0  0  0  0  0  0  0  0  0  0  0  0  0  0  0  0  0
%c cc cc ccc ccc cccc cccc cccc cccc ccccc ccccc ccccc ccccc
%c cc cc ccc ccc cccc cccc cccc cccc ccccc ccccc ccccc ccccc
%f  0.0000000  0.000000000  0.00000000000  0.000000000000000
%f  0.0000000  0.000000000  0.00000000000  0.000000000000000
%i    0    0    0    0      0      0      0      0         0
%i    0    0    0    0      0      0      0      0         0
/*      NGA, ST. LOUIS,MO.                                  
/*   EPHEMERIS COMPUTED FROM 2 DAYS OF DATA                 
/*   EPOCHA v6 SMOOTHER                                     
/*   G2139 IERS2010 SATIGS SATAPC                           
*  2021  7 27 18  0  0.00000000
P  1  14880.884379  13436.139246 -17865.449347    615.420282                    
V  1 -21941.732960  -1270.630454 -19201.006563     -0.114485                    
P  2  10487.393534 -14129.253902  20569.034768   -622.464277                    
V  2  24633.110173   1272.150478 -12010.230576     -0.025395                    
P  3  12117.153513  23641.391041   1611.009656   -234.010874                    
V  3  -1298.964519   2968.070070 -31806.071206     -0.123663                    
P  4   6292.859642  15535.260755  20596.874079   -203.112940                    
V  4 -16541.545973  20277.441721 -10304.913834     -0.005997                    
P  5  -4824.347210 -24195.164738   9444.537205    -49.227468                    
V  5   8066.882093   9679.654975  28600.510804     -0.012133                    
P  6  21371.822694  -7375.743951  14040.529121     46.476207                    
V  6  17447.766050   3186.374486 -24925.298459      0.058744                    
P  7  25186.172844   7037.385085   6337.271655    212.071698                    
V  7  -7691.413638   1776.633103  29865.306149      0.085058                    
P  8  -2521.391175  21812.725213 -14731.275819    -30.364246                    
V  8 -12321.246509  14353.723235  23680.735258     -0.013971                    
P  9  15159.132779   4546.742769  21271.945625   -356.988996                    
V  9 -14827.355971  22780.783805   5657.517421     -0.012798                    
P 10 -15665.319238    988.011309 -21348.165863   -170.532220                    
V 10 -11119.145590 -24945.866892   6697.812001     -0.076435                    
P 11  12035.022399 -12440.692170  20127.304051     24.638035                    
V 11  25149.815437   4899.077810 -12003.937633      0.072082                    
P 12 -10128.655850 -24592.381704   1162.670017    -74.547425                    
V 12   1550.758482  -2479.056870 -31889.886772     -0.053433                    
P 13  11258.811203 -21989.659796  -9695.296827    163.317462                    
V 13  10010.770281  -7292.429251  28705.635613      0.050767                    
P 14  15739.673465  -1335.294829 -21363.085500     37.428043                    
V 14   9819.110701  25288.842997   5610.800257     -0.088287                    
P 15   -738.433923 -22040.320301 -14926.096519   -132.563275                    
V 15  11334.873985 -14942.865004  22408.996357      0.026657                    
P 16  -2493.912747  21894.382747  14241.946356   -363.996859                    
V 16  -8354.406532 -16839.800707  24455.870632     -0.061910                    
P 17  19870.228044  -9222.092757 -14594.319589    480.280250                    
V 17 -10673.852640  16104.782853 -24005.028090      0.057998                    
P 18 -25874.394973  -5214.405730   3319.972065    337.819455                    
V 18   4471.259874  -1993.675557  31502.189602     -0.029916                    
P 19  20287.826936 -15339.751766  -7663.762341     31.864144                    
V 19  -4582.477470   8444.729490 -30277.831588      0.049745                    
P 20   3829.681899 -18786.985188  18453.589936    519.966317                    
V 20  14245.176445  18735.762878  15829.062674     -0.001960                    
P 21   7291.091068  14496.374240 -20428.134679    133.799280                    
V 21 -27460.521020    265.215074  -8796.001830      0.022383                    
P 22   9134.953217  24259.931103  -6078.113945   -553.005955                    
V 22  -6888.895451  -5141.393536 -29783.092368      0.094694                    
P 23 -17970.953261 -10780.607914 -16377.320963     78.822160                    
V 23  -7622.256609 -19342.610236  21064.419644     -0.051579                    
P 24 -10429.959837 -14824.084968 -19787.236527    189.351421                    
V 24  24579.995824   -712.663485 -12183.303663      0.130011                    
P 25 -16539.798828 -17858.146460  10677.882634    180.913153                    
V 25  -3721.960514 -13556.307527 -27491.311026      0.066118                    
P 26  -9699.023059  13694.330666  20471.021579    115.655070                    
V 26 -13107.452215 -22784.437905   9278.372018      0.045118                    
P 27 -11189.438318  23114.006171  -6156.562139   -169.386625                    
V 27  -6474.147785   4797.729375  31026.384031     -0.057713                    
P 28  12778.236048  -7729.809059 -21433.197682    530.454201                    
V 28   9685.951418  26780.710924  -3605.636977     -0.067386                    
P 29 -13164.614956  -6974.127085  21943.376286   -386.939219                    
V 29  17550.863645 -21700.507745   3565.849801     -0.059778                    
P 30  25936.093914  -1479.280023  -6036.394669   -455.621117                    
V 30   7304.494688   4125.975330  29788.765504     -0.042954                    
P 31 -20455.566565   8300.503777  15008.164652   -131.000947                    
V 31 -18697.997077  -4077.530046 -22633.539096     -0.021217                    
P 32 -19544.385166  12398.038859 -12756.612177     11.633654                    
V 32   7322.743948 -14952.409982 -25690.456233     -0.023229                    
EOF
